{"type": "FeatureCollection", "features": [ {"type": "Feature", "properties": {"norad_id": 30770, "name": "FENGYUN 1C DEB", "group": "fengyun-1c-debris", "lat": -27.13194300576702, "lon": 163.65676148556287, "alt_km": 846.2654848590873, "timestamp": "2025-12-07T22:37:43.358607+00:00", "meta": {"OBJECT_NAME": "FENGYUN 1C DEB", "OBJECT_ID": "1999-025AUG", "EPOCH": "2025-12-07T06:41:44.056896", "MEAN_MOTION": 14.15674425, "ECCENTRICITY": 0.00128898, "INCLINATION": 98.6542, "RA_OF_ASC_NODE": 347.4883, "ARG_OF_PERICENTER": 302.798, "MEAN_ANOMALY": 123.1909, "EPHEMERIS_TYPE": 0, "CLASSIFICATION_TYPE": "U", "NORAD_CAT_ID": 30770, "ELEMENT_SET_NO": 999, "REV_AT_EPOCH": 96830, "BSTAR": 0.00051531859, "MEAN_MOTION_DOT": 9.68e-06, "MEAN_MOTION_DDOT": 0}, "tle": {"line1": "1 30770U 99025AUG 25341.27898214  .00000968  00000+0  51532-3 0  9999", "line2": "2 30770  98.6542 347.4883 0012889 302.7980 123.1909 14.15674425968307"}}, "geometry": {"type": "Point", "coordinates": [163.65676148556287, -27.13194300576702]}}, {"type": "Feature", "properties": {"norad_id": 30771, "name": "FENGYUN 1C DEB", "group": "fengyun-1c-debris", "lat": 24.11390953943329, "lon": 140.9729450942421, "alt_km": 763.6210244817312, "timestamp": "2025-12-07T22:37:43.358618+00:00", "meta": {"OBJECT_NAME": "FENGYUN 1C DEB", "OBJECT_ID": "1999-025AUH", "EPOCH": "2025-12-06T20:56:51.097632", "MEAN_MOTION": 14.43014429, "ECCENTRICITY": 0.00237675, "INCLINATION": 98.9053, "RA_OF_ASC_NODE": 315.8309, "ARG_OF_PERICENTER": 317.6471, "MEAN_ANOMALY": 42.2882, "EPHEMERIS_TYPE": 0, "CLASSIFICATION_TYPE": "U", "NORAD_CAT_ID": 30771, "ELEMENT_SET_NO": 999, "REV_AT_EPOCH": 96979, "BSTAR": 0.0047000172, "MEAN_MOTION_DOT": 0.00015784, "MEAN_MOTION_DDOT": 0}, "tle": {"line1": "1 30771U 99025AUH 25340.87281363  .00015784  00000+0  47000-2 0  9992", "line2": "2 30771  98.9053 315.8309 0023767 317.6471  42.2882 14.43014429969795"}}, "geometry": {"type": "Point", "coordinates": [140.9729450942421, 24.11390953943329]}}, {"type": "Feature", "properties": {"norad_id": 30802, "name": "FENGYUN 1C DEB", "group": "fengyun-1c-debris", "lat": 69.8587021653727, "lon": -86.25797543879558, "alt_km": 768.567976227383, "timestamp": "2025-12-07T22:37:43.358628+00:00", "meta": {"OBJECT_NAME": "FENGYUN 1C DEB", "OBJECT_ID": "1999-025AUL", "EPOCH": "2025-12-07T05:28:50.004192", "MEAN_MOTION": 14.32377494, "ECCENTRICITY": 0.00185014, "INCLINATION": 98.8377, "RA_OF_ASC_NODE": 67.914, "ARG_OF_PERICENTER": 59.4238, "MEAN_ANOMALY": 326.2319, "EPHEMERIS_TYPE": 0, "CLASSIFICATION_TYPE": "U", "NORAD_CAT_ID": 30802, "ELEMENT_SET_NO": 999, "REV_AT_EPOCH": 97124, "BSTAR": 0.0027259971, "MEAN_MOTION_DOT": 7.345e-05, "MEAN_MOTION_DDOT": 0}, "tle": {"line1": "1 30802U 99025AUL 25341.22835653  .00007345  00000+0  27260-2 0  9994", "line2": "2 30802  98.8377  67.9140 0018501  59.4238 326.2319 14.32377494971243"}}, "geometry": {"type": "Point", "coordinates": [-86.25797543879558, 69.8587021653727]}}, {"type": "Feature", "properties": {"norad_id": 30803, "name": "FENGYUN 1C DEB", "group": "fengyun-1c-debris", "lat": 73.67576172347296, "lon": -18.80939099321907, "alt_km": 905.5236669657806, "timestamp": "2025-12-07T22:37:43.358639+00:00", "meta": {"OBJECT_NAME": "FENGYUN 1C DEB", "OBJECT_ID": "1999-025AUM", "EPOCH": "2025-12-06T21:07:20.314272", "MEAN_MOTION": 14.112047, "ECCENTRICITY": 0.01071793, "INCLINATION": 99.2457, "RA_OF_ASC_NODE": 13.8869, "ARG_OF_PERICENTER": 217.6449, "MEAN_ANOMALY": 223.4348, "EPHEMERIS_TYPE": 0, "CLASSIFICATION_TYPE": "U", "NORAD_CAT_ID": 30803, "ELEMENT_SET_NO": 999, "REV_AT_EPOCH": 95916, "BSTAR": 0.0020641593, "MEAN_MOTION_DOT": 3.883e-05, "MEAN_MOTION_DDOT": 0}, "tle": {"line1": "1 30803U 99025AUM 25340.88009623  .00003883  00000+0  20642-2 0  9996", "line2": "2 30803  99.2457  13.8869 0107179 217.6449 223.4348 14.11204700959161"}}, "geometry": {"type": "Point", "coordinates": [-18.80939099321907, 73.67576172347296]}}, {"type": "Feature", "properties": {"norad_id": 30804, "name": "FENGYUN 1C DEB", "group": "fengyun-1c-debris", "lat": 73.85864955987414, "lon": 14.308067610935332, "alt_km": 784.163074411289, "timestamp": "2025-12-07T22:37:43.358649+00:00", "meta": {"OBJECT_NAME": "FENGYUN 1C DEB", "OBJECT_ID": "1999-025AUN", "EPOCH": "2025-12-06T10:16:12.256896", "MEAN_MOTION": 14.54556863, "ECCENTRICITY": 0.018536, "INCLINATION": 98.8958, "RA_OF_ASC_NODE": 45.4601, "ARG_OF_PERICENTER": 209.71, "MEAN_ANOMALY": 220.1622, "EPHEMERIS_TYPE": 0, "CLASSIFICATION_TYPE": "U", "NORAD_CAT_ID": 30804, "ELEMENT_SET_NO": 999, "REV_AT_EPOCH": 99385, "BSTAR": 0.0009814831, "MEAN_MOTION_DOT": 5.21e-05, "MEAN_MOTION_DDOT": 0}, "tle": {"line1": "1 30804U 99025AUN 25340.42791964  .00005210  00000+0  98148-3 0  9996", "line2": "2 30804  98.8958  45.4601 0185360 209.7100 220.1622 14.54556863993852"}}, "geometry": {"type": "Point", "coordinates": [14.308067610935332, 73.85864955987414]}}, {"type": "Feature", "properties": {"norad_id": 30805, "name": "FENGYUN 1C DEB", "group": "fengyun-1c-debris", "lat": 39.07073501973041, "lon": 17.508697952133947, "alt_km": 890.8418888201486, "timestamp": "2025-12-07T22:37:43.358660+00:00", "meta": {"OBJECT_NAME": "FENGYUN 1C DEB", "OBJECT_ID": "1999-025AUP", "EPOCH": "2025-12-07T02:02:19.059648", "MEAN_MOTION": 14.02874712, "ECCENTRICITY": 0.00693251, "INCLINATION": 98.821, "RA_OF_ASC_NODE": 23.9196, "ARG_OF_PERICENTER": 300.2352, "MEAN_ANOMALY": 88.2951, "EPHEMERIS_TYPE": 0, "CLASSIFICATION_TYPE": "U", "NORAD_CAT_ID": 30805, "ELEMENT_SET_NO": 999, "REV_AT_EPOCH": 95881, "BSTAR": 0.0010587991, "MEAN_MOTION_DOT": 1.632e-05, "MEAN_MOTION_DDOT": 0}, "tle": {"line1": "1 30805U 99025AUP 25341.08494282  .00001632  00000+0  10588-2 0  9998", "line2": "2 30805  98.8210  23.9196 0069325 300.2352  88.2951 14.02874712958816"}}, "geometry": {"type": "Point", "coordinates": [17.508697952133947, 39.07073501973041]}}, {"type": "Feature", "properties": {"norad_id": 30806, "name": "FENGYUN 1C DEB", "group": "fengyun-1c-debris", "lat": -73.67230810216391, "lon": 155.85667254910388, "alt_km": 1079.5824879227057, "timestamp": "2025-12-07T22:37:43.358670+00:00", "meta": {"OBJECT_NAME": "FENGYUN 1C DEB", "OBJECT_ID": "1999-025AUQ", "EPOCH": "2025-12-06T12:52:53.893632", "MEAN_MOTION": 13.70403207, "ECCENTRICITY": 0.02687402, "INCLINATION": 99.0369, "RA_OF_ASC_NODE": 7.4386, "ARG_OF_PERICENTER": 146.6144, "MEAN_ANOMALY": 13.4768, "EPHEMERIS_TYPE": 0, "CLASSIFICATION_TYPE": "U", "NORAD_CAT_ID": 30806, "ELEMENT_SET_NO": 999, "REV_AT_EPOCH": 93610, "BSTAR": 0.0012176938, "MEAN_MOTION_DOT": 1.35e-05, "MEAN_MOTION_DDOT": 0}, "tle": {"line1": "1 30806U 99025AUQ 25340.53673488  .00001350  00000+0  12177-2 0  9998", "line2": "2 30806  99.0369   7.4386 0268740 146.6144  13.4768 13.70403207936101"}}, "geometry": {"type": "Point", "coordinates": [155.85667254910388, -73.67230810216391]}}, {"type": "Feature", "properties": {"norad_id": 30809, "name": "FENGYUN 1C DEB", "group": "fengyun-1c-debris", "lat": 49.3714282551559, "lon": -98.66600580107294, "alt_km": 768.6236704495195, "timestamp": "2025-12-07T22:37:43.358681+00:00", "meta": {"OBJECT_NAME": "FENGYUN 1C DEB", "OBJECT_ID": "1999-025AUT", "EPOCH": "2025-12-07T05:13:05.799936", "MEAN_MOTION": 14.29148127, "ECCENTRICITY": 0.00524777, "INCLINATION": 98.7895, "RA_OF_ASC_NODE": 70.2136, "ARG_OF_PERICENTER": 187.4777, "MEAN_ANOMALY": 172.5627, "EPHEMERIS_TYPE": 0, "CLASSIFICATION_TYPE": "U", "NORAD_CAT_ID": 30809, "ELEMENT_SET_NO": 999, "REV_AT_EPOCH": 97008, "BSTAR": 0.0031388186, "MEAN_MOTION_DOT": 8.046e-05, "MEAN_MOTION_DDOT": 0}, "tle": {"line1": "1 30809U 99025AUT 25341.21742824  .00008046  00000+0  31388-2 0  9992", "line2": "2 30809  98.7895  70.2136 0052477 187.4777 172.5627 14.29148127970086"}}, "geometry": {"type": "Point", "coordinates": [-98.66600580107294, 49.3714282551559]}}, {"type": "Feature", "properties": {"norad_id": 30810, "name": "FENGYUN 1C DEB", "group": "fengyun-1c-debris", "lat": -50.46479313370304, "lon": -36.53837892250032, "alt_km": 1010.618985154535, "timestamp": "2025-12-07T22:37:43.358691+00:00", "meta": {"OBJECT_NAME": "FENGYUN 1C DEB", "OBJECT_ID": "1999-025AUU", "EPOCH": "2025-12-07T04:26:26.013120", "MEAN_MOTION": 14.04072824, "ECCENTRICITY": 0.01797186, "INCLINATION": 98.6634, "RA_OF_ASC_NODE": 153.3835, "ARG_OF_PERICENTER": 71.0135, "MEAN_ANOMALY": 291.0411, "EPHEMERIS_TYPE": 0, "CLASSIFICATION_TYPE": "U", "NORAD_CAT_ID": 30810, "ELEMENT_SET_NO": 999, "REV_AT_EPOCH": 94305, "BSTAR": 0.0038253424, "MEAN_MOTION_DOT": 6.957e-05, "MEAN_MOTION_DDOT": 0}, "tle": {"line1": "1 30810U 99025AUU 25341.18502330  .00006957  00000+0  38253-2 0  9993", "line2": "2 30810  98.6634 153.3835 0179718  71.0135 291.0411 14.04072824943059"}}, "geometry": {"type": "Point", "coordinates": [-36.53837892250032, -50.46479313370304]}}, {"type": "Feature", "properties": {"norad_id": 30811, "name": "FENGYUN 1C DEB", "group": "fengyun-1c-debris", "lat": 11.529423078600846, "lon": -156.41658988847638, "alt_km": 1093.9116017524384, "timestamp": "2025-12-07T22:37:43.358702+00:00", "meta": {"OBJECT_NAME": "FENGYUN 1C DEB", "OBJECT_ID": "1999-025AUV", "EPOCH": "2025-12-05T15:10:20.133408", "MEAN_MOTION": 13.61812035, "ECCENTRICITY": 0.02788121, "INCLINATION": 98.7823, "RA_OF_ASC_NODE": 19.6936, "ARG_OF_PERICENTER": 64.7977, "MEAN_ANOMALY": 298.1798, "EPHEMERIS_TYPE": 0, "CLASSIFICATION_TYPE": "U", "NORAD_CAT_ID": 30811, "ELEMENT_SET_NO": 999, "REV_AT_EPOCH": 92770, "BSTAR": 0.0029114944, "MEAN_MOTION_DOT": 2.864e-05, "MEAN_MOTION_DDOT": 0}, "tle": {"line1": "1 30811U 99025AUV 25339.63217747  .00002864  00000+0  29115-2 0  9996", "line2": "2 30811  98.7823  19.6936 0278812  64.7977 298.1798 13.61812035927703"}}, "geometry": {"type": "Point", "coordinates": [-156.41658988847638, 11.529423078600846]}}]}